{"type": "FeatureCollection", "features": [ {"type": "Feature", "properties": {"norad_id": 34001, "name": "COSMOS 2251 DEB", "group": "cosmos-2251-debris", "lat": 48.47197478805685, "lon": -82.68933638504609, "alt_km": 759.3652132796406, "timestamp": "2025-12-25T07:41:10.116695+00:00", "meta": {"OBJECT_NAME": "COSMOS 2251 DEB", "OBJECT_ID": "1993-036GL", "EPOCH": "2025-12-24T05:27:26.163360", "MEAN_MOTION": 14.37111271, "ECCENTRICITY": 0.00204339, "INCLINATION": 74.0386, "RA_OF_ASC_NODE": 260.4645, "ARG_OF_PERICENTER": 339.1766, "MEAN_ANOMALY": 180.0079, "EPHEMERIS_TYPE": 0, "CLASSIFICATION_TYPE": "U", "NORAD_CAT_ID": 34001, "ELEMENT_SET_NO": 999, "REV_AT_EPOCH": 88311, "BSTAR": 0.00017425347, "MEAN_MOTION_DOT": 4.93e-06, "MEAN_MOTION_DDOT": 0}, "tle": {"line1": "1 34001U 93036GL  25358.22738615  .00000493  00000+0  17425-3 0  9993", "line2": "2 34001  74.0386 260.4645 0020433 339.1766 180.0079 14.37111271883116"}}, "geometry": {"type": "Point", "coordinates": [-82.68933638504609, 48.47197478805685]}}, {"type": "Feature", "properties": {"norad_id": 34003, "name": "COSMOS 2251 DEB", "group": "cosmos-2251-debris", "lat": 61.49692448681064, "lon": -64.31627576726103, "alt_km": 817.5639432177095, "timestamp": "2025-12-25T07:41:10.116705+00:00", "meta": {"OBJECT_NAME": "COSMOS 2251 DEB", "OBJECT_ID": "1993-036GN", "EPOCH": "2025-12-24T19:14:32.465760", "MEAN_MOTION": 13.84214835, "ECCENTRICITY": 0.02753294, "INCLINATION": 74.0775, "RA_OF_ASC_NODE": 264.8421, "ARG_OF_PERICENTER": 14.14, "MEAN_ANOMALY": 346.7234, "EPHEMERIS_TYPE": 0, "CLASSIFICATION_TYPE": "U", "NORAD_CAT_ID": 34003, "ELEMENT_SET_NO": 999, "REV_AT_EPOCH": 84592, "BSTAR": 0.0018055995, "MEAN_MOTION_DOT": 2.68e-05, "MEAN_MOTION_DDOT": 0}, "tle": {"line1": "1 34003U 93036GN  25358.80176465  .00002680  00000+0  18056-2 0  9998", "line2": "2 34003  74.0775 264.8421 0275329  14.1400 346.7234 13.84214835845923"}}, "geometry": {"type": "Point", "coordinates": [-64.31627576726103, 61.49692448681064]}}, {"type": "Feature", "properties": {"norad_id": 34004, "name": "COSMOS 2251 DEB", "group": "cosmos-2251-debris", "lat": 57.99510035485817, "lon": 82.25952613725838, "alt_km": 746.3240452370519, "timestamp": "2025-12-25T07:41:10.116715+00:00", "meta": {"OBJECT_NAME": "COSMOS 2251 DEB", "OBJECT_ID": "1993-036GP", "EPOCH": "2025-12-24T21:12:02.719584", "MEAN_MOTION": 14.49115551, "ECCENTRICITY": 0.00334237, "INCLINATION": 74.0358, "RA_OF_ASC_NODE": 290.3378, "ARG_OF_PERICENTER": 301.043, "MEAN_ANOMALY": 58.7449, "EPHEMERIS_TYPE": 0, "CLASSIFICATION_TYPE": "U", "NORAD_CAT_ID": 34004, "ELEMENT_SET_NO": 999, "REV_AT_EPOCH": 88206, "BSTAR": 0.0012661645, "MEAN_MOTION_DOT": 4.823e-05, "MEAN_MOTION_DDOT": 0}, "tle": {"line1": "1 34004U 93036GP  25358.88336481  .00004823  00000+0  12662-2 0  9991", "line2": "2 34004  74.0358 290.3378 0033423 301.0430  58.7449 14.49115551882065"}}, "geometry": {"type": "Point", "coordinates": [82.25952613725838, 57.99510035485817]}}, {"type": "Feature", "properties": {"norad_id": 34005, "name": "COSMOS 2251 DEB", "group": "cosmos-2251-debris", "lat": -4.26892536179774, "lon": -170.81982378009738, "alt_km": 750.7122580097684, "timestamp": "2025-12-25T07:41:10.116725+00:00", "meta": {"OBJECT_NAME": "COSMOS 2251 DEB", "OBJECT_ID": "1993-036GQ", "EPOCH": "2025-12-24T20:33:04.669920", "MEAN_MOTION": 14.40312452, "ECCENTRICITY": 0.0021211, "INCLINATION": 74.0433, "RA_OF_ASC_NODE": 191.2609, "ARG_OF_PERICENTER": 307.4464, "MEAN_ANOMALY": 163.3683, "EPHEMERIS_TYPE": 0, "CLASSIFICATION_TYPE": "U", "NORAD_CAT_ID": 34005, "ELEMENT_SET_NO": 999, "REV_AT_EPOCH": 88553, "BSTAR": 9.736245e-05, "MEAN_MOTION_DOT": 2.83e-06, "MEAN_MOTION_DDOT": 0}, "tle": {"line1": "1 34005U 93036GQ  25358.85630405  .00000283  00000+0  97362-4 0  9990", "line2": "2 34005  74.0433 191.2609 0021211 307.4464 163.3683 14.40312452885533"}}, "geometry": {"type": "Point", "coordinates": [-170.81982378009738, -4.26892536179774]}}, {"type": "Feature", "properties": {"norad_id": 34006, "name": "COSMOS 2251 DEB", "group": "cosmos-2251-debris", "lat": -41.03873445688383, "lon": -47.65153167262575, "alt_km": 594.8097264287317, "timestamp": "2025-12-25T07:41:10.116736+00:00", "meta": {"OBJECT_NAME": "COSMOS 2251 DEB", "OBJECT_ID": "1993-036GR", "EPOCH": "2025-12-24T18:25:22.382688", "MEAN_MOTION": 14.95558807, "ECCENTRICITY": 0.00116588, "INCLINATION": 74.0534, "RA_OF_ASC_NODE": 119.05, "ARG_OF_PERICENTER": 50.1684, "MEAN_ANOMALY": 78.6177, "EPHEMERIS_TYPE": 0, "CLASSIFICATION_TYPE": "U", "NORAD_CAT_ID": 34006, "ELEMENT_SET_NO": 999, "REV_AT_EPOCH": 88848, "BSTAR": 0.003601603, "MEAN_MOTION_DOT": 0.00040203, "MEAN_MOTION_DDOT": 0}, "tle": {"line1": "1 34006U 93036GR  25358.76762017  .00040203  00000+0  36016-2 0  9999", "line2": "2 34006  74.0534 119.0500 0011658  50.1684  78.6177 14.95558807888483"}}, "geometry": {"type": "Point", "coordinates": [-47.65153167262575, -41.03873445688383]}}, {"type": "Feature", "properties": {"norad_id": 34007, "name": "COSMOS 2251 DEB", "group": "cosmos-2251-debris", "lat": -45.76100099128654, "lon": 159.79161659062194, "alt_km": 705.7281870851857, "timestamp": "2025-12-25T07:41:10.116746+00:00", "meta": {"OBJECT_NAME": "COSMOS 2251 DEB", "OBJECT_ID": "1993-036GS", "EPOCH": "2025-12-24T22:27:24.825600", "MEAN_MOTION": 14.64870558, "ECCENTRICITY": 0.00442605, "INCLINATION": 74.0198, "RA_OF_ASC_NODE": 323.4174, "ARG_OF_PERICENTER": 94.3833, "MEAN_ANOMALY": 266.2395, "EPHEMERIS_TYPE": 0, "CLASSIFICATION_TYPE": "U", "NORAD_CAT_ID": 34007, "ELEMENT_SET_NO": 999, "REV_AT_EPOCH": 89258, "BSTAR": 0.00080406051, "MEAN_MOTION_DOT": 4.33e-05, "MEAN_MOTION_DDOT": 0}, "tle": {"line1": "1 34007U 93036GS  25358.93570400  .00004330  00000+0  80406-3 0  9996", "line2": "2 34007  74.0198 323.4174 0044260  94.3833 266.2395 14.64870558892588"}}, "geometry": {"type": "Point", "coordinates": [159.79161659062194, -45.76100099128654]}}, {"type": "Feature", "properties": {"norad_id": 34008, "name": "COSMOS 2251 DEB", "group": "cosmos-2251-debris", "lat": -57.76962794372001, "lon": -79.47779378931911, "alt_km": 770.3147343233013, "timestamp": "2025-12-25T07:41:10.116755+00:00", "meta": {"OBJECT_NAME": "COSMOS 2251 DEB", "OBJECT_ID": "1993-036GT", "EPOCH": "2025-12-24T22:10:56.614368", "MEAN_MOTION": 14.33154444, "ECCENTRICITY": 0.00246432, "INCLINATION": 74.0349, "RA_OF_ASC_NODE": 308.2498, "ARG_OF_PERICENTER": 301.5639, "MEAN_ANOMALY": 114.6458, "EPHEMERIS_TYPE": 0, "CLASSIFICATION_TYPE": "U", "NORAD_CAT_ID": 34008, "ELEMENT_SET_NO": 999, "REV_AT_EPOCH": 88139, "BSTAR": 0.00012844481, "MEAN_MOTION_DOT": 3.28e-06, "MEAN_MOTION_DDOT": 0}, "tle": {"line1": "1 34008U 93036GT  25358.92426637  .00000328  00000+0  12844-3 0  9992", "line2": "2 34008  74.0349 308.2498 0024643 301.5639 114.6458 14.33154444881395"}}, "geometry": {"type": "Point", "coordinates": [-79.47779378931911, -57.76962794372001]}}, {"type": "Feature", "properties": {"norad_id": 34009, "name": "COSMOS 2251 DEB", "group": "cosmos-2251-debris", "lat": -21.55134018158976, "lon": -52.54469549263379, "alt_km": 771.5862115262407, "timestamp": "2025-12-25T07:41:10.116765+00:00", "meta": {"OBJECT_NAME": "COSMOS 2251 DEB", "OBJECT_ID": "1993-036GU", "EPOCH": "2025-12-24T20:09:16.171200", "MEAN_MOTION": 14.33231749, "ECCENTRICITY": 0.00269856, "INCLINATION": 74.0377, "RA_OF_ASC_NODE": 314.8236, "ARG_OF_PERICENTER": 20.9929, "MEAN_ANOMALY": 358.7276, "EPHEMERIS_TYPE": 0, "CLASSIFICATION_TYPE": "U", "NORAD_CAT_ID": 34009, "ELEMENT_SET_NO": 999, "REV_AT_EPOCH": 88119, "BSTAR": 0.00015105657, "MEAN_MOTION_DOT": 3.91e-06, "MEAN_MOTION_DDOT": 0}, "tle": {"line1": "1 34009U 93036GU  25358.83977050  .00000391  00000+0  15106-3 0  9997", "line2": "2 34009  74.0377 314.8236 0026985  20.9929 358.7276 14.33231749881196"}}, "geometry": {"type": "Point", "coordinates": [-52.54469549263379, -21.55134018158976]}}, {"type": "Feature", "properties": {"norad_id": 34010, "name": "COSMOS 2251 DEB", "group": "cosmos-2251-debris", "lat": 15.46459012111882, "lon": 72.33579491602448, "alt_km": 504.97741247481554, "timestamp": "2025-12-25T07:41:10.116776+00:00", "meta": {"OBJECT_NAME": "COSMOS 2251 DEB", "OBJECT_ID": "1993-036GV", "EPOCH": "2025-12-24T19:55:00.567552", "MEAN_MOTION": 15.20702858, "ECCENTRICITY": 0.00049503, "INCLINATION": 73.9968, "RA_OF_ASC_NODE": 257.9211, "ARG_OF_PERICENTER": 57.361, "MEAN_ANOMALY": 302.8065, "EPHEMERIS_TYPE": 0, "CLASSIFICATION_TYPE": "U", "NORAD_CAT_ID": 34010, "ELEMENT_SET_NO": 999, "REV_AT_EPOCH": 89469, "BSTAR": 0.0040740676, "MEAN_MOTION_DOT": 0.00090714, "MEAN_MOTION_DDOT": 0}, "tle": {"line1": "1 34010U 93036GV  25358.82986768  .00090714  00000+0  40741-2 0  9994", "line2": "2 34010  73.9968 257.9211 0004950  57.3610 302.8065 15.20702858894697"}}, "geometry": {"type": "Point", "coordinates": [72.33579491602448, 15.46459012111882]}}, {"type": "Feature", "properties": {"norad_id": 34011, "name": "COSMOS 2251 DEB", "group": "cosmos-2251-debris", "lat": 10.373081748213783, "lon": -50.18847951608765, "alt_km": 728.7708597732098, "timestamp": "2025-12-25T07:41:10.116786+00:00", "meta": {"OBJECT_NAME": "COSMOS 2251 DEB", "OBJECT_ID": "1993-036GW", "EPOCH": "2025-12-24T06:39:29.454336", "MEAN_MOTION": 14.4182197, "ECCENTRICITY": 0.00362711, "INCLINATION": 74.0149, "RA_OF_ASC_NODE": 308.7381, "ARG_OF_PERICENTER": 29.1397, "MEAN_ANOMALY": 331.1772, "EPHEMERIS_TYPE": 0, "CLASSIFICATION_TYPE": "U", "NORAD_CAT_ID": 34011, "ELEMENT_SET_NO": 999, "REV_AT_EPOCH": 88082, "BSTAR": 0.00081101718, "MEAN_MOTION_DOT": 2.646e-05, "MEAN_MOTION_DDOT": 0}, "tle": {"line1": "1 34011U 93036GW  25358.27742424  .00002646  00000+0  81102-3 0  9997", "line2": "2 34011  74.0149 308.7381 0036271  29.1397 331.1772 14.41821970880823"}}, "geometry": {"type": "Point", "coordinates": [-50.18847951608765, 10.373081748213783]}}]}